NORAD_CAT_ID,OBJECT_NAME,OBJECT_TYPE,EPOCH,MEAN_MOTION,ECCENTRICITY,INCLINATION,RA_OF_ASC_NODE,ARG_OF_PERICENTER,MEAN_ANOMALY,BSTAR,MEAN_MOTION_DOT,MEAN_MOTION_DDOT,TLE_LINE0,TLE_LINE1,TLE_LINE2,SEMIMAJOR_AXIS,PERIOD,APOGEE,PERIGEE,DECAYED
51875.0,STARLINK-3585,PAYLOAD,2023-09-01 20:17:08,15.08838865,0.0001183,53.2152,178.3757,89.0824,271.0304,5.4344e-05,5.77e-06,0.0,0 STARLINK-3585,1 51875U 22022Z   23244.84523972  .00000577  00000-0  54344-4 0  9992,2 51875  53.2152 178.3757 0001183  89.0824 271.0304 15.08838865 84256,6917.884,95.438,540.567,538.93,0.0
51875.0,STARLINK-3585,PAYLOAD,2023-09-02 05:49:26,15.08846116,0.0001459,53.2166,176.5913,91.2007,268.9152,0.00013044,1.789e-05,0.0,0 STARLINK-3585,1 51875U 22022Z   23245.24267267  .00001789  00000-0  13044-3 0  9996,2 51875  53.2166 176.5913 0001459  91.2007 268.9152 15.08846116 84310,6917.862,95.437,540.736,538.717,0.0
51875.0,STARLINK-3585,PAYLOAD,2023-09-02 20:07:56,15.08835372,0.0001408,53.2164,173.9147,90.3028,269.8126,1.9459e-05,2.2e-07,0.0,0 STARLINK-3585,1 51875U 22022Z   23245.83884439  .00000022  00000-0  19459-4 0  9993,2 51875  53.2164 173.9147 0001408  90.3028 269.8126 15.08835372 84408,6917.895,95.438,540.734,538.785,0.0
51875.0,STARLINK-3585,PAYLOAD,2023-09-03 02:29:28,15.0883688,0.0001262,53.2151,172.7261,90.3251,269.7886,3.3132e-05,2.39e-06,0.0,0 STARLINK-3585,1 51875U 22022Z   23246.10380309  .00000239  00000-0  33132-4 0  9995,2 51875  53.2151 172.7261 0001262  90.3251 269.7886 15.08836880 84445,6917.89,95.438,540.628,538.882,0.0
51875.0,STARLINK-3585,PAYLOAD,2023-09-03 12:01:47,15.08833762,0.000124,53.2153,170.9424,90.176,269.9374,6.7105e-06,-1.81e-06,0.0,0 STARLINK-3585,1 51875U 22022Z   23246.50124762 -.00000181  00000-0  67105-5 0  9993,2 51875  53.2153 170.9424 0001240  90.1760 269.9374 15.08833762 84504,6917.899,95.438,540.622,538.907,0.0
51875.0,STARLINK-3585,PAYLOAD,2023-09-04 05:31:02,15.08840736,0.0001463,53.2157,167.6721,94.5555,265.5604,-2.956e-05,-7.58e-06,0.0,0 STARLINK-3585,1 51875U 22022Z   23247.22988749 -.00000758  00000-0 -29560-4 0  9999,2 51875  53.2157 167.6721 0001463  94.5555 265.5604 15.08840736 84617,6917.878,95.438,540.755,538.731,0.0
51875.0,STARLINK-3585,PAYLOAD,2023-09-04 11:52:34,15.08835625,0.000165,53.2172,166.481,91.6016,268.5165,7.8328e-05,9.59e-06,0.0,0 STARLINK-3585,1 51875U 22022Z   23247.49484810  .00000959  00000-0  78328-4 0  9995,2 51875  53.2172 166.4810 0001650  91.6016 268.5165 15.08835625 84658,6917.894,95.438,540.9,538.617,0.0
51875.0,STARLINK-3585,PAYLOAD,2023-09-05 03:46:26,15.08840158,0.0001608,53.2169,163.5082,91.3776,268.7401,9.745e-05,1.263e-05,0.0,0 STARLINK-3585,1 51875U 22022Z   23248.15724619  .00001263  00000-0  97450-4 0  9999,2 51875  53.2169 163.5082 0001608  91.3776 268.7401 15.08840158 84759,6917.88,95.438,540.857,538.633,0.0
51875.0,STARLINK-3585,PAYLOAD,2023-09-06 00:26:27,15.0882759,0.0001525,53.2164,159.6426,97.3351,262.7814,0.0003377,5.089e-05,0.0,0 STARLINK-3585,1 51875U 22022Z   23249.01836892  .00005089  00000-0  33770-3 0  9996,2 51875  53.2164 159.6426 0001525  97.3351 262.7814 15.08827590 84886,6917.918,95.438,540.838,538.728,0.0
51875.0,STARLINK-3585,PAYLOAD,2023-09-06 03:37:12,15.08847551,0.0001456,53.2164,159.0478,93.3889,266.727,0.0001154,1.549e-05,0.0,0 STARLINK-3585,1 51875U 22022Z   23249.15084004  .00001549  00000-0  11540-3 0  9999,2 51875  53.2164 159.0478 0001456  93.3889 266.7270 15.08847551 84904,6917.857,95.437,540.73,538.715,0.0
51875.0,STARLINK-3585,PAYLOAD,2023-09-07 03:27:59,15.08843205,0.00014,53.217,154.5865,96.1087,264.0065,-1.9233e-05,-5.94e-06,0.0,0 STARLINK-3585,1 51875U 22022Z   23250.14444437 -.00000594  00000-0 -19233-4 0  9999,2 51875  53.2170 154.5865 0001400  96.1087 264.0065 15.08843205 85053,6917.871,95.437,540.704,538.767,0.0
51875.0,STARLINK-3585,PAYLOAD,2023-09-07 17:46:28,15.08835857,0.0001444,53.216,151.9114,92.5147,267.6011,-1.268e-05,-4.9e-06,0.0,0 STARLINK-3585,1 51875U 22022Z   23250.74060855 -.00000490  00000-0 -12680-4 0  9997,2 51875  53.2160 151.9114 0001444  92.5147 267.6011 15.08835857 85149,6917.893,95.438,540.757,538.759,0.0
51875.0,STARLINK-3585,PAYLOAD,2023-09-08 03:18:47,15.08837426,0.0001673,53.2172,150.1253,84.6585,275.4598,4.1405e-05,3.71e-06,0.0,0 STARLINK-3585,1 51875U 22022Z   23251.13804678  .00000371  00000-0  41405-4 0  9993,2 51875  53.2172 150.1253 0001673  84.6585 275.4598 15.08837426 85207,6917.888,95.438,540.911,538.596,0.0
51875.0,STARLINK-3585,PAYLOAD,2023-09-08 20:48:01,15.08833571,0.0001395,53.2153,146.854,103.5602,256.5545,5.9633e-05,6.61e-06,0.0,0 STARLINK-3585,1 51875U 22022Z   23251.86668798  .00000661  00000-0  59633-4 0  9998,2 51875  53.2153 146.8540 0001395 103.5602 256.5545 15.08833571 85310,6917.9,95.438,540.73,538.8,0.0
51875.0,STARLINK-3585,PAYLOAD,2023-09-09 01:34:11,15.08838148,0.0001438,53.2175,145.9641,83.6443,276.4713,9.27e-05,1.188e-05,0.0,0 STARLINK-3585,1 51875U 22022Z   23252.06540615  .00001188  00000-0  92700-4 0  9995,2 51875  53.2175 145.9641 0001438  83.6443 276.4713 15.08838148 85341,6917.886,95.438,540.746,538.756,0.0
51875.0,STARLINK-3585,PAYLOAD,2023-09-09 09:31:06,15.08836322,0.0001434,53.2176,144.4776,83.3958,276.7198,7.0817e-05,8.39e-06,0.0,0 STARLINK-3585,1 51875U 22022Z   23252.39660859  .00000839  00000-0  70817-4 0  9991,2 51875  53.2176 144.4776 0001434  83.3958 276.7198 15.08836322 85396,6917.892,95.438,540.749,538.765,0.0
51875.0,STARLINK-3585,PAYLOAD,2023-09-09 17:28:03,15.08833595,0.0001393,53.2182,142.9927,96.4897,263.6254,5.5548e-06,-2e-06,0.0,0 STARLINK-3585,1 51875U 22022Z   23252.72781399 -.00000200  00000-0  55548-5 0  9999,2 51875  53.2182 142.9927 0001393  96.4897 263.6254 15.08833595 85448,6917.9,95.438,540.729,538.801,0.0
51875.0,STARLINK-3585,PAYLOAD,2023-09-10 03:00:21,15.08838307,0.0001431,53.2182,141.2083,93.8757,266.2398,5.5501e-05,5.95e-06,0.0,0 STARLINK-3585,1 51875U 22022Z   23253.12525239  .00000595  00000-0  55501-4 0  9997,2 51875  53.2182 141.2083 0001431  93.8757 266.2398 15.08838307 85503,6917.886,95.438,540.741,538.761,0.0
51875.0,STARLINK-3585,PAYLOAD,2023-09-11 01:15:45,15.08841371,0.0001155,53.2171,137.044,90.7109,269.4016,4.9563e-05,5.01e-06,0.0,0 STARLINK-3585,1 51875U 22022Z   23254.05261170  .00000501  00000-0  49563-4 0  9999,2 51875  53.2171 137.0440 0001155  90.7109 269.4016 15.08841371 85643,6917.876,95.437,540.54,538.942,0.0
51875.0,STARLINK-3585,PAYLOAD,2023-09-11 09:12:41,15.08839344,0.000111,53.2165,135.5566,91.2299,268.882,4.0419e-05,3.56e-06,0.0,0 STARLINK-3585,1 51875U 22022Z   23254.38381330  .00000356  00000-0  40419-4 0  9995,2 51875  53.2165 135.5566 0001110  91.2299 268.8820 15.08839344 85693,6917.882,95.438,540.515,538.98,0.0
51875.0,STARLINK-3585,PAYLOAD,2023-09-12 01:06:32,15.08844783,0.0001137,53.2162,132.583,88.171,271.9413,9.3837e-05,1.206e-05,0.0,0 STARLINK-3585,1 51875U 22022Z   23255.04620974  .00001206  00000-0  93837-4 0  9996,2 51875  53.2162 132.5830 0001137  88.1710 271.9413 15.08844783 85790,6917.866,95.437,540.517,538.944,0.0
51875.0,STARLINK-3585,PAYLOAD,2023-09-12 17:00:24,15.08839248,0.0001159,53.2156,129.6066,78.5654,281.5468,5.1584e-06,-2.06e-06,0.0,0 STARLINK-3585,1 51875U 22022Z   23255.70861793 -.00000206  00000-0  51584-5 0  9999,2 51875  53.2156 129.6066 0001159  78.5654 281.5468 15.08839248 85893,6917.883,95.438,540.549,538.946,0.0
51875.0,STARLINK-3585,PAYLOAD,2023-09-12 20:11:10,15.08840092,0.0001298,53.2163,129.0119,75.7182,284.3954,2.7111e-05,1.44e-06,0.0,0 STARLINK-3585,1 51875U 22022Z   23255.84109713  .00000144  00000-0  27111-4 0  9999,2 51875  53.2163 129.0119 0001298  75.7182 284.3954 15.08840092 85916,6917.88,95.438,540.643,538.847,0.0
51875.0,STARLINK-3585,PAYLOAD,2023-09-12 23:21:56,15.08844416,0.0001151,53.2165,128.4195,86.4654,273.647,6.8585e-05,8.04e-06,0.0,0 STARLINK-3585,1 51875U 22022Z   23255.97357297  .00000804  00000-0  68585-4 0  9998,2 51875  53.2165 128.4195 0001151  86.4654 273.6470 15.08844416 85936,6917.867,95.437,540.528,538.936,0.0
51875.0,STARLINK-3585,PAYLOAD,2023-09-13 21:37:19,15.08851806,0.0001226,53.2176,124.2537,91.8184,268.2949,8.9269e-05,1.134e-05,0.0,0 STARLINK-3585,1 51875U 22022Z   23256.90092315  .00001134  00000-0  89269-4 0  9998,2 51875  53.2176 124.2537 0001226  91.8184 268.2949 15.08851806 86071,6917.844,95.437,540.557,538.861,0.0
51875.0,STARLINK-3585,PAYLOAD,2023-09-14 00:48:05,15.08860537,0.0001138,53.2167,123.66,92.844,267.2683,0.00011504,1.544e-05,0.0,0 STARLINK-3585,1 51875U 22022Z   23257.03339548  .00001544  00000-0  11504-3 0  9996,2 51875  53.2167 123.6600 0001138  92.8440 267.2683 15.08860537 86090,6917.818,95.436,540.47,538.895,0.0
51875.0,STARLINK-3585,PAYLOAD,2023-09-14 21:28:08,15.08832331,0.0001153,53.2166,119.796,84.8135,275.2988,-2.9322e-05,-7.54e-06,0.0,0 STARLINK-3585,1 51875U 22022Z   23257.89454113 -.00000754  00000-0 -29322-4 0  9998,2 51875  53.2166 119.7960 0001153  84.8135 275.2988 15.08832331 86226,6917.904,95.438,540.566,538.971,0.0
51875.0,STARLINK-3585,PAYLOAD,2023-09-15 00:38:54,15.08832593,0.0001243,53.2165,119.2011,85.4573,274.6561,-2.5315e-05,-6.91e-06,0.0,0 STARLINK-3585,1 51875U 22022Z   23258.02702222 -.00000691  00000-0 -25315-4 0  9999,2 51875  53.2165 119.2011 0001243  85.4573 274.6561 15.08832593 86242,6917.903,95.438,540.628,538.908,0.0
51875.0,STARLINK-3585,PAYLOAD,2023-09-15 18:08:08,15.0884479,0.0001147,53.2161,115.9298,86.1097,274.0026,-5.1326e-05,-1.105e-05,0.0,0 STARLINK-3585,1 51875U 22022Z   23258.75565482 -.00001105  00000-0 -51326-4 0  9996,2 51875  53.2161 115.9298 0001147  86.1097 274.0026 15.08844790 86354,6917.866,95.437,540.524,538.937,0.0
51875.0,STARLINK-3585,PAYLOAD,2023-09-15 21:18:54,15.08849451,0.0001216,53.2164,115.335,88.3307,271.7824,-8.9357e-06,-4.3e-06,0.0,0 STARLINK-3585,1 51875U 22022Z   23258.88813040 -.00000430  00000-0 -89357-5 0  9992,2 51875  53.2164 115.3350 0001216  88.3307 271.7824 15.08849451 86376,6917.852,95.437,540.558,538.875,0.0
